CCSDS_OEM_VERS = 1.0
CREATION_DATE  = 2017-05-11T11:06:59
ORIGINATOR     = GMAT USER

META_START
OBJECT_NAME          = MOPSSat_alt_35785_km_RAAN_0_143
OBJECT_ID            = SatId
CENTER_NAME          = Earth
REF_FRAME            = EME2000
TIME_SYSTEM          = UTC
START_TIME           = 2017-01-01T00:00:00.000
USEABLE_START_TIME   = 2017-01-01T00:00:00.000
USEABLE_STOP_TIME    = 2017-01-02T00:00:00.000
STOP_TIME            = 2017-01-02T00:00:00.000
INTERPOLATION        = Lagrange
INTERPOLATION_DEGREE = 7 
META_STOP


                                                                                   

2017-01-01T11:18:20.000  -5.870127557992181e+04   4.693987364170862e+03   8.269206412461743e+02  -2.718462666528316e-01  -1.971536247957070e+00  -3.475859318557415e-01
2017-01-01T11:18:30.000  -5.870398831546873e+04   4.674271545042328e+03   8.234447015666342e+02  -2.707008527669169e-01  -1.971627572894708e+00  -3.476020031973395e-01
2017-01-01T11:18:40.000  -5.870668959694629e+04   4.654554814490180e+03   8.199686014955356e+02  -2.695554493315083e-01  -1.971718508103530e+00  -3.476180058344429e-01
2017-01-01T11:18:50.000  -5.870937942446542e+04   4.634837176359422e+03   8.164923417107066e+02  -2.684100563009308e-01  -1.971809053630059e+00  -3.476339397752596e-01
2017-01-01T11:19:00.000  -5.871205779813085e+04   4.615118634538750e+03   8.130159228976769e+02  -2.672646736320589e-01  -1.971899209520420e+00  -3.476498050279279e-01
2017-01-01T11:19:10.000  -5.871472471804854e+04   4.595399192902528e+03   8.095393457394497e+02  -2.661193012809472e-01  -1.971988975820596e+00  -3.476656016005603e-01
2017-01-01T11:19:20.000  -5.871738018429166e+04   4.575678855570711e+03   8.060626109623270e+02  -2.649739392179224e-01  -1.972078352575280e+00  -3.476813295010431e-01
2017-01-01T11:19:30.000  -5.872002419694211e+04   4.555957626593905e+03   8.025857192803828e+02  -2.638285874092954e-01  -1.972167339829275e+00  -3.476969887372813e-01
2017-01-01T11:19:40.000  -5.872265675607500e+04   4.536235510070467e+03   7.991086714161102e+02  -2.626832458241626e-01  -1.972255937626968e+00  -3.477125793171064e-01
2017-01-01T11:19:50.000  -5.872527786181918e+04   4.516512509692863e+03   7.956314680204443e+02  -2.615379144080593e-01  -1.972344146014373e+00  -3.477281012486368e-01
2017-01-01T11:20:00.000  -5.872788751429682e+04   4.496788629200169e+03   7.921541097525362e+02  -2.603925931092402e-01  -1.972431965037088e+00  -3.477435545399175e-01
2017-01-01T11:20:10.000  -5.873048571363720e+04   4.477063872275554e+03   7.886765972616805e+02  -2.592472818727237e-01  -1.972519394740770e+00  -3.477589391990032e-01
2017-01-01T11:20:20.000  -5.873307245994148e+04   4.457338242801620e+03   7.851989312323329e+02  -2.581019806551268e-01  -1.972606435169945e+00  -3.477742552337502e-01
2017-01-01T11:20:30.000  -5.873564775330947e+04   4.437611744670879e+03   7.817211123506946e+02  -2.569566894136519e-01  -1.972693086368903e+00  -3.477895026519729e-01
2017-01-01T11:20:40.000  -5.873821159383880e+04   4.417884381785689e+03   7.782431413047045e+02  -2.558114081060862e-01  -1.972779348381681e+00  -3.478046814614411e-01
2017-01-01T11:20:50.000  -5.874076398160184e+04   4.398156158248068e+03   7.747650188175006e+02  -2.546661367018139e-01  -1.972865221251280e+00  -3.478197916697422e-01
2017-01-01T11:21:00.000  -5.874330491667757e+04   4.378427078104092e+03   7.712867456023591e+02  -2.535208751669837e-01  -1.972950705020738e+00  -3.478348332844703e-01
2017-01-01T11:21:10.000  -5.874583439913876e+04   4.358697145444574e+03   7.678083223804421e+02  -2.523756234703529e-01  -1.973035799732698e+00  -3.478498063131497e-01
2017-01-01T11:21:20.000  -5.874835242910917e+04   4.338966363959828e+03   7.643297498023049e+02  -2.512303815574415e-01  -1.973120505431336e+00  -3.478647107635740e-01
2017-01-01T11:21:30.000  -5.875085900670623e+04   4.319234737384914e+03   7.608510285263891e+02  -2.500851493763789e-01  -1.973204822160429e+00  -3.478795466434675e-01
2017-01-01T11:21:40.000  -5.875335413205428e+04   4.299502269398971e+03   7.573721592012791e+02  -2.489399268720586e-01  -1.973288749963802e+00  -3.478943139605622e-01
2017-01-01T11:21:50.000  -5.875583780525062e+04   4.279768963880681e+03   7.538931425107382e+02  -2.477947140009730e-01  -1.973372288884185e+00  -3.479090127223972e-01
2017-01-01T11:22:00.000  -5.875831002639115e+04   4.260034824718639e+03   7.504139791402777e+02  -2.466495107201996e-01  -1.973455438964078e+00  -3.479236429364714e-01
2017-01-01T11:22:10.000  -5.876077079556970e+04   4.240299855811329e+03   7.469346697771521e+02  -2.455043169874019e-01  -1.973538200245726e+00  -3.479382046102387e-01
2017-01-01T11:22:20.000  -5.876322011285594e+04   4.220564061256973e+03   7.434552151438302e+02  -2.443591327718397e-01  -1.973620572770376e+00  -3.479526977509771e-01
2017-01-01T11:22:30.000  -5.876565797832573e+04   4.200827445097854e+03   7.399756159529182e+02  -2.432139580395385e-01  -1.973702556579299e+00  -3.479671223659696e-01
2017-01-01T11:22:40.000  -5.876808439204904e+04   4.181090011421028e+03   7.364958729249157e+02  -2.420687927591323e-01  -1.973784151713388e+00  -3.479814784624308e-01
2017-01-01T11:22:50.000  -5.877049935414470e+04   4.161351763912916e+03   7.330159867096910e+02  -2.409236368760212e-01  -1.973865358214988e+00  -3.479957660478329e-01
2017-01-01T11:23:00.000  -5.877290286472550e+04   4.141612706304717e+03   7.295359579650049e+02  -2.397784903382139e-01  -1.973946176126061e+00  -3.480099851295794e-01
2017-01-01T11:23:10.000  -5.877529492391082e+04   4.121872842271711e+03   7.260557873387601e+02  -2.386333530904847e-01  -1.974026605488605e+00  -3.480241357150798e-01
2017-01-01T11:23:20.000  -5.877767553179403e+04   4.102132175688809e+03   7.225754755140556e+02  -2.374882250892061e-01  -1.974106646343560e+00  -3.480382178115581e-01
2017-01-01T11:23:30.000  -5.878004468846713e+04   4.082390710440871e+03   7.190950231757425e+02  -2.363431062913366e-01  -1.974186298731634e+00  -3.480522314261972e-01
2017-01-01T11:23:40.000  -5.878240239402015e+04   4.062648450422651e+03   7.156144310104183e+02  -2.351979966544213e-01  -1.974265562693286e+00  -3.480661765661360e-01
2017-01-01T11:23:50.000  -5.878474864852001e+04   4.042905399728741e+03   7.121336997399102e+02  -2.340528961476010e-01  -1.974344438268014e+00  -3.480800532383445e-01
2017-01-01T11:24:00.000  -5.878708345203950e+04   4.023161562397791e+03   7.086528300761845e+02  -2.329078047367837e-01  -1.974422925495331e+00  -3.480938614497946e-01
2017-01-01T11:24:10.000  -5.878940680464556e+04   4.003416942515165e+03   7.051718227394414e+02  -2.317627223905962e-01  -1.974501024414365e+00  -3.481076012073913e-01
2017-01-01T11:24:20.000  -5.879171870645248e+04   3.983671543759924e+03   7.016906783782498e+02  -2.306176490541127e-01  -1.974578735065659e+00  -3.481212725182875e-01
2017-01-01T11:24:30.000  -5.879401915756844e+04   3.963925369858991e+03   6.982093976496184e+02  -2.294725846751938e-01  -1.974656057489359e+00  -3.481348753895672e-01
2017-01-01T11:24:40.000  -5.879630815810939e+04   3.944178424469932e+03   6.947279811983251e+02  -2.283275291976869e-01  -1.974732991725695e+00  -3.481484098283282e-01
2017-01-01T11:24:50.000  -5.879858570816120e+04   3.924430711496163e+03   6.912464297124935e+02  -2.271824825797116e-01  -1.974809537813697e+00  -3.481618758414579e-01
2017-01-01T11:25:00.000  -5.880085180781117e+04   3.904682234826852e+03   6.877647438777352e+02  -2.260374447785701e-01  -1.974885695792262e+00  -3.481752734358193e-01
2017-01-01T11:25:10.000  -5.880310645714081e+04   3.884932998394972e+03   6.842829243873841e+02  -2.248924157541160e-01  -1.974961465699909e+00  -3.481886026182098e-01
2017-01-01T11:25:20.000  -5.880534965622870e+04   3.865183006161578e+03   6.808009719397235e+02  -2.237473954678373e-01  -1.975036847574874e+00  -3.482018633953762e-01
2017-01-01T11:25:30.000  -5.880758140515187e+04   3.845432262096081e+03   6.773188872345132e+02  -2.226023838817178e-01  -1.975111841455158e+00  -3.482150557740243e-01
2017-01-01T11:25:40.000  -5.880980170398678e+04   3.825680770169147e+03   6.738366709717315e+02  -2.214573809578236e-01  -1.975186447378560e+00  -3.482281797608242e-01
2017-01-01T11:25:50.000  -5.881201055281769e+04   3.805928534282091e+03   6.703543238391304e+02  -2.203123866542083e-01  -1.975260665382956e+00  -3.482412353624590e-01
2017-01-01T11:26:00.000  -5.881420795173072e+04   3.786175558313923e+03   6.668718465205302e+02  -2.191674009276433e-01  -1.975334495506103e+00  -3.482542225855916e-01
2017-01-01T11:26:10.000  -5.881639390081417e+04   3.766421846121365e+03   6.633892396958213e+02  -2.180224237336174e-01  -1.975407937785647e+00  -3.482671414368648e-01
2017-01-01T11:26:20.000  -5.881856840016307e+04   3.746667401491742e+03   6.599065040326589e+02  -2.168774550236083e-01  -1.975480992259277e+00  -3.482799919229285e-01
2017-01-01T11:26:30.000  -5.882073144987186e+04   3.726912228213618e+03   6.564236401989173e+02  -2.157324947491759e-01  -1.975553658964477e+00  -3.482927740503980e-01
2017-01-01T11:26:40.000  -5.882288305003364e+04   3.707156330083958e+03   6.529406488639514e+02  -2.145875428623761e-01  -1.975625937938508e+00  -3.483054878258471e-01
2017-01-01T11:26:50.000  -5.882502320073731e+04   3.687399710927743e+03   6.494575307020554e+02  -2.134425993169012e-01  -1.975697829218301e+00  -3.483181332557931e-01
2017-01-01T11:27:00.000  -5.882715190206671e+04   3.667642374613820e+03   6.459742863952571e+02  -2.122976640689949e-01  -1.975769332840437e+00  -3.483307103466909e-01
2017-01-01T11:27:10.000  -5.882926915410653e+04   3.647884324996783e+03   6.424909166230711e+02  -2.111527370740847e-01  -1.975840448841342e+00  -3.483432191049685e-01
2017-01-01T11:27:20.000  -5.883137495691558e+04   3.628125566177375e+03   6.390074221084092e+02  -2.100078183018682e-01  -1.975911177256389e+00  -3.483556595368682e-01
